#dP2021 11 26  6  0  0.00000000      96 __u+U ITR00 EXT  IAC
## 2185 453600.00000000   900.00000000 59544 0.2500000000000
+  112   C06C07C08C09C10C11C12C13C14C16C19C20C21C22C23C24C25
+        C26C27C28C29C30C32C33C34C35C36C37C38C39C40C41C42C43
+        C44C45C46E01E02E03E04E05E07E08E09E11E12E13E14E15E18
+        E19E21E24E25E27E30E31E33E36G01G02G03G04G05G06G07G08
+        G09G10G12G13G14G15G16G17G18G19G20G21G22G23G24G25G26
+        G27G28G29G30G31G32R01R02R03R04R05R07R08R09R11R12R13
+        R14R15R16R17R18R19R20R21R22R24  0  0  0  0  0  0  0
++         9  9 10  8 10  8  8 10  9 10  9  9  9  9  7  9  7
++        10  8  7 10  7 10  8  8  8  7  7  9 11  9  9  8  9
++         7 11 10  8  9  8  8  7  7  8  9  8  7  9  8  9  8
++         7  9  8  9  7  9  9  8  7  7  7  7  8  7  7  8  7
++         8  8  7  7  7  7  8  7  7  8  8  8  7  8  7  8  6
++         8  8  7  7  8  8  8  8  8  8  8  8  9  9  8  9  9
++         8  7  8  7  8  9  8  7  8  8  0  0  0  0  0  0  0
%c M  cc GPS ccc cccc cccc cccc cccc ccccc ccccc ccccc ccccc
%c cc cc ccc ccc cccc cccc cccc cccc ccccc ccccc ccccc ccccc
%f  0.0000000  0.000000000  0.00000000000  0.000000000000000
%f  0.0000000  0.000000000  0.00000000000  0.000000000000000
%i    0    0    0    0      0      0      0      0         0
%i    0    0    0    0      0      0      0      0         0
/* IAC                                ULTRA-RAPID PREDICTION
/* S/V CLOCKS ARE ALIGNED TO GNSS TIME                      
/* G:C1WC2W R:C1PC2P E:C1XC5X C:C2IC6I J:C1CC2S             
/* PCV:IGS14_2178 OL/AL:FES2004  NONE     YN ORB:CoN CLK:CoN
*  2021 11 26 11  0  0.00000000
PC06 -16338.746019  36548.325438  12930.574858    544.090113
PC07  -2721.226096  35111.057146  23285.510066    193.113687
PC08  -9136.160118  19945.374802 -36017.454112   -736.279631
PC09 -11192.657232  35388.631739  19866.987242   -298.437069
PC10   4578.256004  38347.907106  17710.893267     13.978383
PC11  19723.280946 -19195.813976  -4400.231973    713.182178
PC12  19771.007022  -4340.506636 -19155.582190    719.533051
PC13  -3038.182336  22213.915359 -35592.818230    487.242113
PC14  10953.229492 -13396.373346  21896.597689    519.663195
PC16 -19960.787917  36095.138945   8258.099293   -708.051940
PC19  -4079.345863  21562.072639 -17228.904038    930.379276
PC20 -15006.248128   5100.150551 -22962.422781   -791.513247
PC21  17554.122385  15463.047517  15234.021711   -940.294261
PC22   9564.759369  26195.132711  -1312.123679   -972.124653
PC23  -9555.106915 -16310.917315 -20526.547004   -963.819489
PC24  26235.176309  -2664.747565  -9087.945975   -957.189280
PC25  10730.570669 -14168.530432 -21513.920175   -819.010320
PC26  25650.502846   8312.698036   7102.390382    816.396669
PC27 -15748.284708  -5195.653037  22427.600675    635.578485
PC28   -832.225482 -20140.254672  19301.537121      1.809935
PC29 -13755.446396  23814.807648  -4739.499904    479.472010
PC30 -21002.389848  12993.548879  12974.624438    487.246805
PC32 -17658.915225 -15385.586796 -15163.765950   -959.415102
PC33   4069.250483 -21513.592190  17293.111747   -967.374732
PC34  21017.585996 -13719.455789 -12224.108405   -528.301114
PC35   1136.761515  20414.883732 -18980.097206     18.348610
PC36 -11568.535394  13743.178738  21381.342855   -814.365044
PC37 -24996.796119  -9483.563024  -8031.696225   -898.860024
PC38 -19309.565129  19768.258687 -31883.851837    192.244691
PC39 -21411.959704  36139.177921   2493.265948     34.139196
PC40  -6646.047680  30898.785306  27987.427342    221.150278
PC41  -9370.148248 -26236.232210   1741.616442   -915.497786
PC42  15455.889726  -4107.433081  22904.635727   -939.069461
PC43  14250.778428 -23646.850151   4129.355475   -958.281616
PC44  15928.540973   4910.077437 -22390.083355    478.395285
PC45   9769.131123  16168.848299  20533.283466    610.990731
PC46 -25758.966281   3479.577541  10218.270833    -28.626287
PE01  23380.057306   2357.354207 -17986.987543   -525.216248
PE02 -23336.165737  -2238.316093  18088.201241    262.848272
PE03 -17183.790775   7640.913856 -22871.337369   -500.012036
PE04  10722.300503 -25353.020851  10882.310782   -907.837448
PE05 -13661.152175 -14894.870206 -21633.210344   -231.050120
PE07   2223.387041  28468.222977   7807.795779   -611.150952
PE08 -10344.580074  25640.227117 -10591.817223   5898.772043
PE09  -2446.085269 -28375.909055  -8046.829812   5450.564505
PE11   -877.155877 -16888.348889  24291.335481   5011.173638
PE12  19583.621711 -17907.262834  13127.680009   4890.922279
PE13    242.366480  17013.427513 -24212.424083    424.083774
PE14    843.435843 -22721.923243   7938.368988  -1653.601822
PE15 -19622.478844  17898.582578 -13061.970071    778.763844
PE18   6560.669460  25938.420772 -18098.541444  -1818.065067
PE19  17185.123648  -4827.378033  23609.348417    437.119726
PE21  24409.817089  16624.523602  -1915.752360   -701.780661
PE24 -10266.950569 -22092.121239 -16840.890138  -1247.066397
PE25 -24347.922752 -16758.606189   1702.172038   -554.854849
PE27  11388.761583  22094.292255  16068.425329   -173.405167
PE30  -9450.780952  13713.702808  24466.204425    -61.017542
PE31   8195.959991 -14532.128112 -24438.933808   -488.567593
PE33  27844.645239  -8243.999944  -5723.069437   -462.123877
PE36 -19865.915250  -6134.995069  21076.795294   -295.445993
PG01   2962.527983  14484.791667 -22332.631588    500.366895
PG02  18331.510862 -15329.419136  12354.782627   -643.505202
PG03  10329.142449  21700.883669 -11524.139170    -23.608156
PG04   1091.590011  23802.772563  11656.195014   -200.879306
PG05   3328.517386 -16480.551452  20359.199500    -62.361403
PG06  25959.193808  -5499.100411  -1680.425937    127.288626
PG07  18969.012066   8013.002989  17411.823373    283.224231
PG08  -6047.135429  25668.088449   -709.050876    -45.672460
PG09  10014.654648  15439.825137  19065.960198   -361.351422
PG10 -21332.640090  -8395.989019 -13534.765422   -254.754959
PG12  -7268.178009 -22203.349852 -13014.849866   -131.919476
PG13  13199.811021 -22390.495269   4896.701157    220.337660
PG14  21055.568573   8956.488802 -13537.084467    -45.029354
PG15   2632.992396 -26217.201741  -1657.409014   -103.645622
PG16  -7712.800980  13461.220745  21237.555735   -430.572496
PG17  14836.523081   1271.231675 -21557.334013    539.102655
PG18 -19482.074396  -7093.570241  16652.290951    289.569779
PG19  16888.748946  -7566.816299 -19248.063860     84.275479
PG20  12884.130001  -9585.475091  21105.947421    517.934411
PG21  -6537.179596  16352.671527 -19012.471419    152.108357
PG22   4034.886455  19711.045420 -17270.899482   -455.722362
PG23 -20578.464094 -16524.508558  -3401.607328     28.595610
PG24   1107.736449 -16658.821093 -20864.463676    270.581794
PG25 -16677.346176 -20563.841334  -3804.979119    246.523430
PG26 -18030.283002   2635.569351  19353.187904    159.123659
PG27 -12245.389085  21480.843183   8982.394240   -223.823276
PG28  18420.947961   2749.411634 -18313.751049    455.249029
PG29  -5442.148903 -19249.845782  17397.064925   -445.833397
PG30  25107.712885    876.628084   9045.181157   -494.518509
PG31 -26024.605078   6456.230536    507.226002   -152.064745
PG32 -16027.945442   3316.143005 -20767.155163    -26.908693
PR01  11936.199610   4895.527373  22000.352978     88.627002
PR02   5993.058142 -16113.934507  18905.719127    501.330574
PR03  -2913.347692 -25022.392859   4240.613769     47.094307
PR04  -9894.026613 -19826.768117 -12629.835143    116.032345
PR05 -11442.265380  -3738.266260 -22489.817319     83.128025
PR07   3270.269713  25029.813542  -3450.467662    -39.696335
PR08  10059.360201  19677.349424  12761.034580    -62.220756
PR09 -13597.454191   6327.721067  20630.659543     25.583510
PR11  19812.343550  11787.726819  10939.756644     47.796404
PR12  24019.296203   4303.836332  -7364.668498    281.557663
PR13  14471.891653  -5530.083219 -20276.800149    -64.042751
PR14  -4586.561549 -12564.101149 -21705.152582     71.415010
PR15 -20081.274939 -11919.502093 -10246.690075     99.965035
PR16 -23920.443284  -2975.114360   8529.376108    -25.693872
PR17   7765.334119 -17107.498296  17244.142370    478.257768
PR18  -6925.884723  -7825.600002  23288.928870     98.468404
PR19 -17837.397478   4368.753762  17714.008412   -168.433999
PR20 -19607.955464  16272.027277   -686.182901    -60.068458
PR21  -6797.092923  16608.519611 -18137.490056   -257.550470
PR22   7768.803689   7022.219386 -23269.490745   -147.608935
PR24  19005.447679 -16937.289588   1450.579203     68.559135
EOF
